STARLINK-2032           
1 47649U 21012AF  26068.05276662  .00102351  00000+0  99602-3 0  9992
2 47649  53.0435  17.0799 0010256  79.1502 281.0667 15.65431979280700
STARLINK-11256 [DTC]    
1 60904U 24154B   26068.46674722 -.00003348  00000+0 -22762-4 0  9997
2 60904  53.1600 132.0558 0001380  87.3306 272.7870 15.69726790 88482
