[{"OBJECT_NAME":"STARLINK-2032","OBJECT_ID":"2021-012AF","EPOCH":"2026-03-09T01:15:59.035968","MEAN_MOTION":15.65431979,"ECCENTRICITY":0.00102565,"INCLINATION":53.0435,"RA_OF_ASC_NODE":17.0799,"ARG_OF_PERICENTER":79.1502,"MEAN_ANOMALY":281.0667,"EPHEMERIS_TYPE":0,"CLASSIFICATION_TYPE":"U","NORAD_CAT_ID":47649,"ELEMENT_SET_NO":999,"REV_AT_EPOCH":28070,"BSTAR":0.00099601867,"MEAN_MOTION_DOT":0.00102351,"MEAN_MOTION_DDOT":0},{"OBJECT_NAME":"STARLINK-11256 [DTC]","OBJECT_ID":"2024-154B","EPOCH":"2026-03-09T11:12:06.959808","MEAN_MOTION":15.6972679,"ECCENTRICITY":0.00013803,"INCLINATION":53.16,"RA_OF_ASC_NODE":132.0558,"ARG_OF_PERICENTER":87.3306,"MEAN_ANOMALY":272.787,"EPHEMERIS_TYPE":0,"CLASSIFICATION_TYPE":"U","NORAD_CAT_ID":60904,"ELEMENT_SET_NO":999,"REV_AT_EPOCH":8848,"BSTAR":-2.2761905e-5,"MEAN_MOTION_DOT":-3.348e-5,"MEAN_MOTION_DDOT":0}]
